ORBCOMM FM06            
1 25118U 97084G   26068.62953596  .00002251  00000+0  64878-3 0  9997
2 25118  45.0122 171.8858 0001937 196.1809 301.7130 14.47270413479968
CHUTIAN-2 A             
1 66409U 25256A   26066.25703147  .00000675  00000+0  18520-3 0  9990
2 66409  98.2606 134.4631 0012402 283.9716  76.0099 14.50085622 17120
