[{"OBJECT_NAME":"ORBCOMM FM06","OBJECT_ID":"1997-084G","EPOCH":"2026-03-09T15:06:31.906944","MEAN_MOTION":14.47270413,"ECCENTRICITY":0.0001937,"INCLINATION":45.0122,"RA_OF_ASC_NODE":171.8858,"ARG_OF_PERICENTER":196.1809,"MEAN_ANOMALY":301.713,"EPHEMERIS_TYPE":0,"CLASSIFICATION_TYPE":"U","NORAD_CAT_ID":25118,"ELEMENT_SET_NO":999,"REV_AT_EPOCH":47996,"BSTAR":0.00064878,"MEAN_MOTION_DOT":2.251e-5,"MEAN_MOTION_DDOT":0},{"OBJECT_NAME":"CHUTIAN-2 A","OBJECT_ID":"2025-256A","EPOCH":"2026-03-07T06:10:07.519008","MEAN_MOTION":14.50085622,"ECCENTRICITY":0.0012402,"INCLINATION":98.2606,"RA_OF_ASC_NODE":134.4631,"ARG_OF_PERICENTER":283.9716,"MEAN_ANOMALY":76.0099,"EPHEMERIS_TYPE":0,"CLASSIFICATION_TYPE":"U","NORAD_CAT_ID":66409,"ELEMENT_SET_NO":999,"REV_AT_EPOCH":1712,"BSTAR":0.0001852,"MEAN_MOTION_DOT":6.75e-6,"MEAN_MOTION_DDOT":0}]
